{
  "type": "FeatureCollection",
  "features": [
    {
      "type": "Feature",
      "properties": {
        "norad_id": 44793,
        "name": "BEIDOU-3 M22 (C44)",
        "group": "gnss",
        "lat": -47.959003478714,
        "lon": -107.31694786530323,
        "alt_km": 21533.45333368186,
        "timestamp": "2025-12-21T18:54:58.740164+00:00",
        "meta_object_name": "BEIDOU-3 M22 (C44)",
        "meta_object_id": "2019-078A",
        "meta_epoch": "2025-12-21T08:24:25.549344",
        "meta_mean_motion": 1.86232186,
        "meta_eccentricity": 0.00060493,
        "meta_inclination": 54.1004,
        "meta_ra_of_asc_node": 306.084,
        "meta_arg_of_pericenter": 24.1688,
        "meta_mean_anomaly": 335.8571,
        "meta_ephemeris_type": 0,
        "meta_classification_type": "U",
        "meta_norad_cat_id": 44793,
        "meta_element_set_no": 999,
        "meta_rev_at_epoch": 4133,
        "meta_bstar": 0,
        "meta_mean_motion_dot": -6.2e-07,
        "meta_mean_motion_ddot": 0,
        "tle_line1": "1 44793U 19078A   25355.35029571 -.00000062  00000+0  00000+0 0  9991",
        "tle_line2": "2 44793  54.1004 306.0840 0006049  24.1688 335.8571  1.86232186 41332"
      },
      "geometry": {
        "type": "Point",
        "coordinates": [
          -107.31694786530323,
          -47.959003478714
        ]
      }
    },
    {
      "type": "Feature",
      "properties": {
        "norad_id": 44794,
        "name": "BEIDOU-3 M21 (C43)",
        "group": "gnss",
        "lat": -17.018795277969133,
        "lon": 138.81895686385053,
        "alt_km": 21542.089825167375,
        "timestamp": "2025-12-21T18:54:58.740175+00:00",
        "meta_object_name": "BEIDOU-3 M21 (C43)",
        "meta_object_id": "2019-078B",
        "meta_epoch": "2025-12-16T15:43:55.727904",
        "meta_mean_motion": 1.86227668,
        "meta_eccentricity": 0.00041169,
        "meta_inclination": 54.078,
        "meta_ra_of_asc_node": 306.2132,
        "meta_arg_of_pericenter": 11.942,
        "meta_mean_anomaly": 348.0544,
        "meta_ephemeris_type": 0,
        "meta_classification_type": "U",
        "meta_norad_cat_id": 44794,
        "meta_element_set_no": 999,
        "meta_rev_at_epoch": 4125,
        "meta_bstar": 0,
        "meta_mean_motion_dot": -9.5e-07,
        "meta_mean_motion_ddot": 0,
        "tle_line1": "1 44794U 19078B   25350.65550611 -.00000095  00000+0  00000+0 0  9990",
        "tle_line2": "2 44794  54.0780 306.2132 0004116  11.9420 348.0544  1.86227668 41256"
      },
      "geometry": {
        "type": "Point",
        "coordinates": [
          138.81895686385053,
          -17.018795277969133
        ]
      }
    },
    {
      "type": "Feature",
      "properties": {
        "norad_id": 44850,
        "name": "COSMOS 2544 (759)",
        "group": "gnss",
        "lat": 60.5057960355509,
        "lon": -154.0474524665634,
        "alt_km": 19152.244109750107,
        "timestamp": "2025-12-21T18:54:58.740186+00:00",
        "meta_object_name": "COSMOS 2544 (759)",
        "meta_object_id": "2019-088A",
        "meta_epoch": "2025-12-21T04:18:06.689376",
        "meta_mean_motion": 2.13102125,
        "meta_eccentricity": 0.00141884,
        "meta_inclination": 65.4644,
        "meta_ra_of_asc_node": 79.6762,
        "meta_arg_of_pericenter": 250.1842,
        "meta_mean_anomaly": 109.6995,
        "meta_ephemeris_type": 0,
        "meta_classification_type": "U",
        "meta_norad_cat_id": 44850,
        "meta_element_set_no": 999,
        "meta_rev_at_epoch": 4692,
        "meta_bstar": 0,
        "meta_mean_motion_dot": -1e-07,
        "meta_mean_motion_ddot": 0,
        "tle_line1": "1 44850U 19088A   25355.17924409 -.00000010  00000+0  00000+0 0  9993",
        "tle_line2": "2 44850  65.4644  79.6762 0014188 250.1842 109.6995  2.13102125 46920"
      },
      "geometry": {
        "type": "Point",
        "coordinates": [
          -154.0474524665634,
          60.5057960355509
        ]
      }
    },
    {
      "type": "Feature",
      "properties": {
        "norad_id": 44864,
        "name": "BEIDOU-3 M19 (C41)",
        "group": "gnss",
        "lat": 30.200321348862925,
        "lon": 91.4096508683844,
        "alt_km": 21543.535780071023,
        "timestamp": "2025-12-21T18:54:58.740203+00:00",
        "meta_object_name": "BEIDOU-3 M19 (C41)",
        "meta_object_id": "2019-090A",
        "meta_epoch": "2025-12-21T08:18:55.694880",
        "meta_mean_motion": 1.86231675,
        "meta_eccentricity": 0.00183109,
        "meta_inclination": 56.3999,
        "meta_ra_of_asc_node": 68.6763,
        "meta_arg_of_pericenter": 285.0239,
        "meta_mean_anomaly": 175.8266,
        "meta_ephemeris_type": 0,
        "meta_classification_type": "U",
        "meta_norad_cat_id": 44864,
        "meta_element_set_no": 999,
        "meta_rev_at_epoch": 4092,
        "meta_bstar": 0,
        "meta_mean_motion_dot": -3.6e-07,
        "meta_mean_motion_ddot": 0,
        "tle_line1": "1 44864U 19090A   25355.34647795 -.00000036  00000+0  00000+0 0  9998",
        "tle_line2": "2 44864  56.3999  68.6763 0018310 285.0239 175.8266  1.86231675 40926"
      },
      "geometry": {
        "type": "Point",
        "coordinates": [
          91.4096508683844,
          30.200321348862925
        ]
      }
    },
    {
      "type": "Feature",
      "properties": {
        "norad_id": 44865,
        "name": "BEIDOU-3 M20 (C42)",
        "group": "gnss",
        "lat": 42.00288762716557,
        "lon": -147.99409347196004,
        "alt_km": 21565.493172001887,
        "timestamp": "2025-12-21T18:54:58.740214+00:00",
        "meta_object_name": "BEIDOU-3 M20 (C42)",
        "meta_object_id": "2019-090B",
        "meta_epoch": "2025-12-21T01:49:05.066976",
        "meta_mean_motion": 1.86231552,
        "meta_eccentricity": 0.00154797,
        "meta_inclination": 56.4014,
        "meta_ra_of_asc_node": 68.7196,
        "meta_arg_of_pericenter": 297.2086,
        "meta_mean_anomaly": 71.7471,
        "meta_ephemeris_type": 0,
        "meta_classification_type": "U",
        "meta_norad_cat_id": 44865,
        "meta_element_set_no": 999,
        "meta_rev_at_epoch": 4090,
        "meta_bstar": 0,
        "meta_mean_motion_dot": -3.8e-07,
        "meta_mean_motion_ddot": 0,
        "tle_line1": "1 44865U 19090B   25355.07575309 -.00000038  00000+0  00000+0 0  9992",
        "tle_line2": "2 44865  56.4014  68.7196 0015479 297.2086  71.7471  1.86231552 40909"
      },
      "geometry": {
        "type": "Point",
        "coordinates": [
          -147.99409347196004,
          42.00288762716557
        ]
      }
    },
    {
      "type": "Feature",
      "properties": {
        "norad_id": 45344,
        "name": "BEIDOU-3 G2 (C60)",
        "group": "gnss",
        "lat": 1.961476233933369,
        "lon": 94.35050566242374,
        "alt_km": 35794.30277758283,
        "timestamp": "2025-12-21T18:54:58.740230+00:00",
        "meta_object_name": "BEIDOU-3 G2 (C60)",
        "meta_object_id": "2020-017A",
        "meta_epoch": "2025-12-19T13:38:45.370752",
        "meta_mean_motion": 1.00273166,
        "meta_eccentricity": 0.0002079,
        "meta_inclination": 2.5096,
        "meta_ra_of_asc_node": 44.0024,
        "meta_arg_of_pericenter": 233.0917,
        "meta_mean_anomaly": 96.0359,
        "meta_ephemeris_type": 0,
        "meta_classification_type": "U",
        "meta_norad_cat_id": 45344,
        "meta_element_set_no": 999,
        "meta_rev_at_epoch": 2145,
        "meta_bstar": 0,
        "meta_mean_motion_dot": -1.18e-06,
        "meta_mean_motion_ddot": 0,
        "tle_line1": "1 45344U 20017A   25353.56858068 -.00000118  00000+0  00000+0 0  9993",
        "tle_line2": "2 45344   2.5096  44.0024 0002079 233.0917  96.0359  1.00273166 21451"
      },
      "geometry": {
        "type": "Point",
        "coordinates": [
          94.35050566242374,
          1.961476233933369
        ]
      }
    },
    {
      "type": "Feature",
      "properties": {
        "norad_id": 45358,
        "name": "COSMOS 2545 (760)",
        "group": "gnss",
        "lat": -37.970875699460834,
        "lon": -63.25789422950833,
        "alt_km": 19123.219224353983,
        "timestamp": "2025-12-21T18:54:58.740257+00:00",
        "meta_object_name": "COSMOS 2545 (760)",
        "meta_object_id": "2020-018A",
        "meta_epoch": "2025-12-20T21:44:12.708096",
        "meta_mean_motion": 2.13102664,
        "meta_eccentricity": 0.00114269,
        "meta_inclination": 64.4648,
        "meta_ra_of_asc_node": 318.6832,
        "meta_arg_of_pericenter": 250.0027,
        "meta_mean_anomaly": 109.8672,
        "meta_ephemeris_type": 0,
        "meta_classification_type": "U",
        "meta_norad_cat_id": 45358,
        "meta_element_set_no": 999,
        "meta_rev_at_epoch": 4486,
        "meta_bstar": 0,
        "meta_mean_motion_dot": -5e-07,
        "meta_mean_motion_ddot": 0,
        "tle_line1": "1 45358U 20018A   25354.90570264 -.00000050  00000+0  00000+0 0  9992",
        "tle_line2": "2 45358  64.4648 318.6832 0011426 250.0027 109.8672  2.13102664 44860"
      },
      "geometry": {
        "type": "Point",
        "coordinates": [
          -63.25789422950833,
          -37.970875699460834
        ]
      }
    }
  ]
}